     2.100          NAVIGATION                              RINEX VERSION / TYPE
fic2rin                                 08/29/2015 00:34:28 PGM / RUN BY / DATE
                                                            END OF HEADER
31 15  8 29  0  0  0.0  .304805580527D-03 -.136424205266D-11  .000000000000D+00
     .120000000000D+02 -.108437500000D+02  .395802201036D-08 -.216585965071D+01
    -.599771738052D-06  .808066688478D-02  .127684324980D-04  .515358460045D+04
     .518400000000D+06 -.167638063431D-06 -.389716266344D+00  .763684511185D-07
     .974390462474D+00  .142937500000D+03 -.523699491169D+00 -.771603568957D-08
    -.549308595194D-09  .100000000000D+01  .185900000000D+04  .000000000000D+00
     .240000000000D+01  .000000000000D+00 -.135041773319D-07  .120000000000D+02
     .511206000000D+06  .400000000000D+01
32 15  8 29  0  0  0.0 -.593122094870D-04  .108002495836D-10  .000000000000D+00
     .570000000000D+02  .621562500000D+02  .512735643212D-08 -.167492360117D+01
     .314973294735D-05  .112953914795D-01  .898726284504D-05  .515369878769D+04
     .518400000000D+06  .465661287308D-07 -.243675956710D+01 -.147148966789D-06
     .947055901068D+00  .199593750000D+03  .104999861117D+00 -.832570394184D-08
     .813962476233D-09  .100000000000D+01  .185900000000D+04  .000000000000D+00
     .240000000000D+01  .000000000000D+00 -.372529029846D-08  .570000000000D+02
     .511206000000D+06  .400000000000D+01
29 15  8 28 23 59 44.0  .630831811577D-03  .238742359215D-11  .000000000000D+00
     .160000000000D+02 -.377812500000D+02  .462162108050D-08  .311853722266D+01
    -.197067856789D-05  .926368054934D-03  .112131237984D-05  .515370196152D+04
     .518384000000D+06  .633299350739D-07  .172572788605D+01  .484287738800D-07
     .973968385738D+00  .361968750000D+03 -.454651061287D+00 -.848321050263D-08
    -.842892252703D-10  .100000000000D+01  .185900000000D+04  .000000000000D+00
     .240000000000D+01  .000000000000D+00 -.102445483208D-07  .160000000000D+02
     .511566000000D+06  .400000000000D+01
28 15  8 28 23 59 44.0  .463755335659D-03  .261479726760D-11  .000000000000D+00
     .170000000000D+02  .135406250000D+03  .387909015110D-08  .148504855099D+01
     .672042369843D-05  .196083636256D-01  .827759504318D-05  .515369877434D+04
     .518384000000D+06 -.875443220139D-07  .695963526817D+00 -.493600964546D-06
     .989292882717D+00  .232718750000D+03 -.165822925257D+01 -.800319050787D-08
     .555380276675D-09  .100000000000D+01  .185900000000D+04  .000000000000D+00
     .240000000000D+01  .000000000000D+00 -.111758708954D-07  .170000000000D+02
     .512736000000D+06  .400000000000D+01
 3 15  8 28 23 59 44.0  .190138816833D-04  .193267624127D-11  .000000000000D+00
     .110000000000D+02  .607187500000D+02  .469733852015D-08  .463903671427D+00
     .310875475407D-05  .663437764160D-03  .103004276752D-04  .515361683273D+04
     .518384000000D+06 -.111758708954D-07 -.251740255318D+01  .186264514923D-07
     .959496509601D+00  .179531250000D+03 -.256576268524D+01 -.811962392921D-08
     .683599903251D-09  .100000000000D+01  .185900000000D+04  .000000000000D+00
     .240000000000D+01  .000000000000D+00  .186264514923D-08  .110000000000D+02
     .516696000000D+06  .400000000000D+01
26 15  8 28 23 59 44.0 -.380943529308D-04 -.954969436862D-11  .000000000000D+00
     .300000000000D+01  .121687500000D+03  .434196657462D-08  .137885036832D+01
     .632181763649D-05  .210969825275D-03  .825151801109D-05  .515363073921D+04
     .518384000000D+06 -.149011611938D-07  .620113098405D+00 -.335276126862D-07
     .960689582200D+00  .220625000000D+03  .106493042436D+01 -.813141013444D-08
     .405731186047D-09  .100000000000D+01  .185900000000D+04  .000000000000D+00
     .240000000000D+01  .000000000000D+00  .745058059692D-08  .300000000000D+01
     .517326000000D+06  .400000000000D+01
15 15  8 28 23 59 28.0 -.268599949777D-03 -.204636307899D-11  .000000000000D+00
     .190000000000D+02 -.107187500000D+02  .596703426521D-08 -.418001528470D-01
    -.614672899246D-06  .735225761309D-02  .315904617310D-05  .515369059563D+04
     .518368000000D+06  .298023223877D-07 -.152086610327D+01  .856816768646D-07
     .932131424410D+00  .299562500000D+03  .398657087679D+00 -.901323258017D-08
    -.242867259253D-09  .100000000000D+01  .185900000000D+04  .000000000000D+00
     .240000000000D+01  .000000000000D+00 -.107102096081D-07  .190000000000D+02
     .517596000000D+06  .400000000000D+01
